{
"type": "FeatureCollection",
"name": "vyborgskaya",
"crs": { "type": "name", "properties": { "name": "urn:ogc:def:crs:OGC:1.3:CRS84" } },
"features": [
{ "type": "Feature", "properties": { "height": 9.9, "match_type": "matched", "height_source": "source_b" }, "geometry": { "type": "Polygon", "coordinates": [ [ [ 30.344398, 59.993813999998679 ], [ 30.344472, 59.993933999998667 ], [ 30.345335, 59.993802999998657 ], [ 30.34526, 59.993681999998664 ], [ 30.344398, 59.993813999998679 ] ] ] } },
{ "type": "Feature", "properties": { "height": 15.0, "match_type": "matched", "height_source": "source_b" }, "geometry": { "type": "Polygon", "coordinates": [ [ [ 30.34371, 59.987315999998657 ], [ 30.343665, 59.987427999998665 ], [ 30.344614, 59.98752299999866 ], [ 30.344658, 59.98741099999868 ], [ 30.34371, 59.987315999998657 ] ] ] } },
{ "type": "Feature", "properties": { "height": 9.9, "match_type": "matched", "height_source": "source_b" }, "geometry": { "type": "Polygon", "coordinates": [ [ [ 30.34403, 59.984636999998678 ], [ 30.343919, 59.984912999998663 ], [ 30.34437, 59.984959999998644 ], [ 30.344457, 59.984745999998651 ], [ 30.344783, 59.984779999998672 ], [ 30.344808, 59.984715999998656 ], [ 30.34403, 59.984636999998678 ] ] ] } },
{ "type": "Feature", "properties": { "height": 4.5, "match_type": "matched", "height_source": "source_b" }, "geometry": { "type": "Polygon", "coordinates": [ [ [ 30.344412, 59.987153999998682 ], [ 30.344442, 59.987058999998688 ], [ 30.344024, 59.987024999998681 ], [ 30.343993, 59.987119999998669 ], [ 30.344412, 59.987153999998682 ] ] ] } },
{ "type": "Feature", "properties": { "height": 7.4, "match_type": "only_a", "height_source": "ml_predicted" }, "geometry": { "type": "Polygon", "coordinates": [ [ [ 30.344, 59.9868 ], [ 30.34412, 59.98683 ], [ 30.34412, 59.9868 ], [ 30.344, 59.9868 ] ] ] } },
{ "type": "Feature", "properties": { "height": 4.6, "match_type": "only_a", "height_source": "ml_predicted" }, "geometry": { "type": "Polygon", "coordinates": [ [ [ 30.34419, 59.99435 ], [ 30.34422, 59.99441 ], [ 30.34456, 59.99436 ], [ 30.34453, 59.9943 ], [ 30.34419, 59.99435 ] ] ] } },
{ "type": "Feature", "properties": { "height": 13.2, "match_type": "matched", "height_source": "source_b" }, "geometry": { "type": "Polygon", "coordinates": [ [ [ 30.344225, 59.987748999998665 ], [ 30.344139, 59.987951999998657 ], [ 30.344364, 59.987975999998675 ], [ 30.34445, 59.987772999998647 ], [ 30.344225, 59.987748999998665 ] ] ] } },
{ "type": "Feature", "properties": { "height": 7.3, "match_type": "only_a", "height_source": "ml_predicted" }, "geometry": { "type": "Polygon", "coordinates": [ [ [ 30.34431, 59.98412 ], [ 30.34433, 59.98406 ], [ 30.34564, 59.98418 ], [ 30.34561, 59.98425 ], [ 30.34579, 59.98427 ], [ 30.34584, 59.98415 ], [ 30.3443, 59.98399 ], [ 30.34426, 59.98411 ], [ 30.34431, 59.98412 ] ] ] } },
{ "type": "Feature", "properties": { "height": 4.5, "match_type": "matched", "height_source": "source_b" }, "geometry": { "type": "Polygon", "coordinates": [ [ [ 30.34372, 59.988161999998667 ], [ 30.3437, 59.988209999998681 ], [ 30.344315, 59.988277999998672 ], [ 30.344335, 59.988231999998654 ], [ 30.34372, 59.988161999998667 ] ] ] } },
{ "type": "Feature", "properties": { "height": 5.0, "match_type": "only_a", "height_source": "ml_predicted" }, "geometry": { "type": "Polygon", "coordinates": [ [ [ 30.34445, 59.98512 ], [ 30.34446, 59.98508 ], [ 30.34437, 59.98507 ], [ 30.34436, 59.98511 ], [ 30.34445, 59.98512 ] ] ] } },
{ "type": "Feature", "properties": { "height": 4.5, "match_type": "matched", "height_source": "source_b" }, "geometry": { "type": "Polygon", "coordinates": [ [ [ 30.344368, 59.994168999998685 ], [ 30.344126, 59.994203999998668 ], [ 30.344172, 59.99428199999867 ], [ 30.344413, 59.994246999998659 ], [ 30.344368, 59.994168999998685 ] ] ] } },
{ "type": "Feature", "properties": { "height": 15.0, "match_type": "matched", "height_source": "source_b" }, "geometry": { "type": "Polygon", "coordinates": [ [ [ 30.345279, 59.994400999998682 ], [ 30.344967, 59.994444999998677 ], [ 30.345187, 59.994813999998662 ], [ 30.344109, 59.99497299999868 ], [ 30.343896, 59.994600999998688 ], [ 30.343589, 59.994645999998689 ], [ 30.343801, 59.995018999998649 ], [ 30.343514, 59.995060999998671 ], [ 30.343597, 59.995202999998661 ], [ 30.34392, 59.995190999998691 ], [ 30.343908, 59.995159999998684 ], [ 30.344196, 59.995121999998659 ], [ 30.344331, 59.995373999998677 ], [ 30.344418, 59.995363999998673 ], [ 30.344509, 59.995530999998685 ], [ 30.344004, 59.995599999998653 ], [ 30.34409, 59.995744999998678 ], [ 30.344806, 59.995680999998683 ], [ 30.34445, 59.995027999998669 ], [ 30.345068, 59.994933999998707 ], [ 30.345319, 59.995366999998673 ], [ 30.345609, 59.995309999998668 ], [ 30.34568, 59.99524299999868 ], [ 30.345683, 59.995187999998656 ], [ 30.345544, 59.995202999998661 ], [ 30.345365, 59.99489599999864 ], [ 30.345555, 59.994865999998652 ], [ 30.345279, 59.994400999998682 ] ] ] } },
{ "type": "Feature", "properties": { "height": 6.6, "match_type": "matched", "height_source": "source_b" }, "geometry": { "type": "Polygon", "coordinates": [ [ [ 30.344786, 59.986440999998685 ], [ 30.344694, 59.986686999998668 ], [ 30.344565, 59.986674999998669 ], [ 30.344505, 59.986836999998673 ], [ 30.344636, 59.986849999998675 ], [ 30.344512, 59.98718399999867 ], [ 30.344716, 59.987202999998672 ], [ 30.344993, 59.986460999998663 ], [ 30.344786, 59.986440999998685 ] ], [ [ 30.344638, 59.986786999998678 ], [ 30.344667, 59.986701999998658 ], [ 30.344794, 59.986712999998652 ], [ 30.344765, 59.986797999998672 ], [ 30.344638, 59.986786999998678 ] ] ] } },
{ "type": "Feature", "properties": { "height": 9.9, "match_type": "matched", "height_source": "source_b" }, "geometry": { "type": "Polygon", "coordinates": [ [ [ 30.344638, 59.986786999998678 ], [ 30.344765, 59.986797999998672 ], [ 30.344794, 59.986712999998652 ], [ 30.344667, 59.986701999998658 ], [ 30.344638, 59.986786999998678 ] ] ] } },
{ "type": "Feature", "properties": { "height": 9.9, "match_type": "matched", "height_source": "source_b" }, "geometry": { "type": "Polygon", "coordinates": [ [ [ 30.344253, 59.989208999998652 ], [ 30.344175, 59.98938499999867 ], [ 30.344424, 59.989411999998666 ], [ 30.344501, 59.989235999998677 ], [ 30.344253, 59.989208999998652 ] ] ] } },
{ "type": "Feature", "properties": { "height": 4.5, "match_type": "matched", "height_source": "source_b" }, "geometry": { "type": "Polygon", "coordinates": [ [ [ 30.344712, 59.98500299999867 ], [ 30.344677, 59.985109999998663 ], [ 30.344812, 59.985121999998661 ], [ 30.344847, 59.985013999998678 ], [ 30.344712, 59.98500299999867 ] ] ] } },
{ "type": "Feature", "properties": { "height": 15.0, "match_type": "matched", "height_source": "source_b" }, "geometry": { "type": "Polygon", "coordinates": [ [ [ 30.344528, 59.988758999998666 ], [ 30.344401, 59.989114999998662 ], [ 30.34563, 59.989229999998685 ], [ 30.345672, 59.989106999998668 ], [ 30.344672, 59.989014999998695 ], [ 30.344756, 59.98878099999866 ], [ 30.344528, 59.988758999998666 ] ] ] } },
{ "type": "Feature", "properties": { "height": 9.9, "match_type": "matched", "height_source": "source_b" }, "geometry": { "type": "Polygon", "coordinates": [ [ [ 30.344895, 59.989337999998675 ], [ 30.344815, 59.989480999998634 ], [ 30.345117, 59.989523999998674 ], [ 30.345196, 59.989378999998671 ], [ 30.344895, 59.989337999998675 ] ] ] } },
{ "type": "Feature", "properties": { "height": 4.5, "match_type": "matched", "height_source": "source_b" }, "geometry": { "type": "Polygon", "coordinates": [ [ [ 30.344903, 59.987967999998666 ], [ 30.344836, 59.988158999998682 ], [ 30.344958, 59.988169999998661 ], [ 30.345024, 59.987977999998684 ], [ 30.344903, 59.987967999998666 ] ] ] } },
{ "type": "Feature", "properties": { "height": 3.9, "match_type": "only_a", "height_source": "ml_predicted" }, "geometry": { "type": "Polygon", "coordinates": [ [ [ 30.34489, 59.99578 ], [ 30.34475, 59.9958 ], [ 30.34478, 59.99587 ], [ 30.34493, 59.99585 ], [ 30.34489, 59.99578 ] ] ] } },
{ "type": "Feature", "properties": { "height": 12.1, "match_type": "only_a", "height_source": "ml_predicted" }, "geometry": { "type": "Polygon", "coordinates": [ [ [ 30.34491, 59.98514 ], [ 30.3449, 59.98517 ], [ 30.34504, 59.98516 ], [ 30.34491, 59.98514 ] ] ] } },
{ "type": "Feature", "properties": { "height": 18.0, "match_type": "matched", "height_source": "source_b" }, "geometry": { "type": "Polygon", "coordinates": [ [ [ 30.345266, 59.985069999998672 ], [ 30.344939, 59.985041999998671 ], [ 30.344894, 59.985148999998678 ], [ 30.345231, 59.985178999998681 ], [ 30.345266, 59.985069999998672 ] ], [ [ 30.345027, 59.985141999998639 ], [ 30.345054, 59.985067999998677 ], [ 30.345121, 59.985073999998676 ], [ 30.345094, 59.985147999998659 ], [ 30.345027, 59.985141999998639 ] ] ] } },
{ "type": "Feature", "properties": { "height": 21.0, "match_type": "matched", "height_source": "source_b" }, "geometry": { "type": "Polygon", "coordinates": [ [ [ 30.345027, 59.985141999998639 ], [ 30.345094, 59.985147999998659 ], [ 30.345121, 59.985073999998676 ], [ 30.345054, 59.985067999998677 ], [ 30.345027, 59.985141999998639 ] ] ] } },
{ "type": "Feature", "properties": { "height": 6.1, "match_type": "only_a", "height_source": "ml_predicted" }, "geometry": { "type": "Polygon", "coordinates": [ [ [ 30.345, 59.98844 ], [ 30.34505, 59.98832 ], [ 30.34468, 59.98828 ], [ 30.34462, 59.9884 ], [ 30.345, 59.98844 ] ] ] } },
{ "type": "Feature", "properties": { "height": 4.0, "match_type": "matched", "height_source": "source_b" }, "geometry": { "type": "Polygon", "coordinates": [ [ [ 30.345529399904258, 59.98815189959231 ], [ 30.345354192936909, 59.988129274241537 ], [ 30.345193346385344, 59.988441938360232 ], [ 30.345368556675101, 59.988464563969956 ], [ 30.345529399904258, 59.98815189959231 ] ] ] } },
{ "type": "Feature", "properties": { "height": 13.6, "match_type": "only_a", "height_source": "ml_predicted" }, "geometry": { "type": "Polygon", "coordinates": [ [ [ 30.34509, 59.98519 ], [ 30.34522, 59.9852 ], [ 30.34524, 59.98518 ], [ 30.3451, 59.98516 ], [ 30.34509, 59.98519 ] ] ] } },
{ "type": "Feature", "properties": { "height": 15.0, "match_type": "matched", "height_source": "source_b" }, "geometry": { "type": "Polygon", "coordinates": [ [ [ 30.345589, 59.984263999998667 ], [ 30.345251, 59.985116999998652 ], [ 30.345464, 59.985138999998675 ], [ 30.345794, 59.984287999998671 ], [ 30.345589, 59.984263999998667 ] ] ] } },
{ "type": "Feature", "properties": { "height": 15.0, "match_type": "matched", "height_source": "source_b" }, "geometry": { "type": "Polygon", "coordinates": [ [ [ 30.345837, 59.986661999998681 ], [ 30.345976, 59.986324999998672 ], [ 30.345837, 59.98630999999866 ], [ 30.345968, 59.985991999998667 ], [ 30.34583, 59.985978999998679 ], [ 30.345943, 59.985669999998677 ], [ 30.345713, 59.985646999998671 ], [ 30.345565, 59.985997999998673 ], [ 30.345701, 59.986010999998648 ], [ 30.345586, 59.986326999998653 ], [ 30.34571, 59.98634199999865 ], [ 30.345617, 59.986596999998667 ], [ 30.345497, 59.986586999998686 ], [ 30.345356, 59.986898999998637 ], [ 30.345232, 59.986887999998672 ], [ 30.34508, 59.987244999998673 ], [ 30.34532, 59.987267999998672 ], [ 30.345457, 59.986946999998665 ], [ 30.345579, 59.986955999998656 ], [ 30.345713, 59.986650999998659 ], [ 30.345837, 59.986661999998681 ] ] ] } },
{ "type": "Feature", "properties": { "height": 11.6, "match_type": "only_a", "height_source": "ml_predicted" }, "geometry": { "type": "Polygon", "coordinates": [ [ [ 30.34531, 59.98519 ], [ 30.34539, 59.98515 ], [ 30.34533, 59.98514 ], [ 30.34531, 59.98519 ] ] ] } },
{ "type": "Feature", "properties": { "height": 15.0, "match_type": "matched", "height_source": "source_b" }, "geometry": { "type": "Polygon", "coordinates": [ [ [ 30.344232, 59.985552999998681 ], [ 30.344203, 59.985631999998667 ], [ 30.345008, 59.985705999998679 ], [ 30.344952, 59.985857999998672 ], [ 30.344711, 59.985835999998656 ], [ 30.344659, 59.985976999998684 ], [ 30.345179, 59.986024999998669 ], [ 30.345341, 59.985583999998681 ], [ 30.344095, 59.985461999998691 ], [ 30.344067, 59.985537999998662 ], [ 30.344232, 59.985552999998681 ] ] ] } },
{ "type": "Feature", "properties": { "height": 8.7, "match_type": "only_a", "height_source": "ml_predicted" }, "geometry": { "type": "Polygon", "coordinates": [ [ [ 30.34538, 59.98519 ], [ 30.34546, 59.98517 ], [ 30.34539, 59.98516 ], [ 30.34538, 59.98519 ] ] ] } },
{ "type": "Feature", "properties": { "height": 5.7, "match_type": "only_a", "height_source": "ml_predicted" }, "geometry": { "type": "Polygon", "coordinates": [ [ [ 30.34552, 59.9852 ], [ 30.3456, 59.98521 ], [ 30.34562, 59.98515 ], [ 30.34554, 59.98514 ], [ 30.34552, 59.9852 ] ] ] } },
{ "type": "Feature", "properties": { "height": 9.9, "match_type": "matched", "height_source": "source_b" }, "geometry": { "type": "Polygon", "coordinates": [ [ [ 30.345531, 59.989305999998649 ], [ 30.345453, 59.989433999998674 ], [ 30.345594, 59.989455999998675 ], [ 30.345672, 59.989327999998665 ], [ 30.345531, 59.989305999998649 ] ] ] } },
{ "type": "Feature", "properties": { "height": 8.8, "match_type": "only_a", "height_source": "ml_predicted" }, "geometry": { "type": "Polygon", "coordinates": [ [ [ 30.3455, 59.99581 ], [ 30.34555, 59.99578 ], [ 30.34549, 59.99578 ], [ 30.3455, 59.99581 ] ] ] } },
{ "type": "Feature", "properties": { "height": 15.0, "match_type": "matched", "height_source": "source_b" }, "geometry": { "type": "Polygon", "coordinates": [ [ [ 30.345567, 59.984316999998669 ], [ 30.345618, 59.984198999998675 ], [ 30.344327, 59.984068999998669 ], [ 30.344283, 59.984182999998652 ], [ 30.345567, 59.984316999998669 ] ] ] } },
{ "type": "Feature", "properties": { "height": 8.9, "match_type": "only_a", "height_source": "ml_predicted" }, "geometry": { "type": "Polygon", "coordinates": [ [ [ 30.34565, 59.98504 ], [ 30.34559, 59.98506 ], [ 30.34565, 59.98506 ], [ 30.34565, 59.98504 ] ] ] } },
{ "type": "Feature", "properties": { "height": 5.5, "match_type": "only_a", "height_source": "ml_predicted" }, "geometry": { "type": "Polygon", "coordinates": [ [ [ 30.34562, 59.98514 ], [ 30.34564, 59.98508 ], [ 30.34558, 59.98508 ], [ 30.34555, 59.98513 ], [ 30.34562, 59.98514 ] ] ] } },
{ "type": "Feature", "properties": { "height": 6.4, "match_type": "only_a", "height_source": "ml_predicted" }, "geometry": { "type": "Polygon", "coordinates": [ [ [ 30.34575, 59.98521 ], [ 30.34578, 59.98525 ], [ 30.3458, 59.98522 ], [ 30.34575, 59.98521 ] ] ] } },
{ "type": "Feature", "properties": { "height": 6.7, "match_type": "only_a", "height_source": "ml_predicted" }, "geometry": { "type": "Polygon", "coordinates": [ [ [ 30.34576, 59.98519 ], [ 30.34582, 59.98517 ], [ 30.34575, 59.98519 ], [ 30.34576, 59.98519 ] ] ] } },
{ "type": "Feature", "properties": { "height": 7.0, "match_type": "only_a", "height_source": "ml_predicted" }, "geometry": { "type": "Polygon", "coordinates": [ [ [ 30.34578, 59.98515 ], [ 30.34582, 59.98512 ], [ 30.34577, 59.98514 ], [ 30.34578, 59.98515 ] ] ] } },
{ "type": "Feature", "properties": { "height": 9.3, "match_type": "only_a", "height_source": "ml_predicted" }, "geometry": { "type": "Polygon", "coordinates": [ [ [ 30.34579, 59.9851 ], [ 30.34584, 59.98508 ], [ 30.34579, 59.98508 ], [ 30.34579, 59.9851 ] ] ] } },
{ "type": "Feature", "properties": { "height": 6.6, "match_type": "matched", "height_source": "source_b" }, "geometry": { "type": "Polygon", "coordinates": [ [ [ 30.345681, 59.992486999998675 ], [ 30.345476, 59.992557999998674 ], [ 30.345714, 59.992950999998676 ], [ 30.345981, 59.992949999998672 ], [ 30.345956, 59.992908999998662 ], [ 30.346012, 59.992900999998682 ], [ 30.345772, 59.992502999998656 ], [ 30.345681, 59.992486999998675 ] ] ] } },
{ "type": "Feature", "properties": { "height": 4.5, "match_type": "matched", "height_source": "source_b" }, "geometry": { "type": "Polygon", "coordinates": [ [ [ 30.345887, 59.985127999998682 ], [ 30.345836, 59.985273999998661 ], [ 30.346053, 59.985292999998677 ], [ 30.346081, 59.98521399999867 ], [ 30.345968, 59.985203999998689 ], [ 30.345991, 59.985137999998685 ], [ 30.345887, 59.985127999998682 ] ] ] } },
{ "type": "Feature", "properties": { "height": 9.2, "match_type": "only_a", "height_source": "ml_predicted" }, "geometry": { "type": "Polygon", "coordinates": [ [ [ 30.34583, 59.98502 ], [ 30.34587, 59.98499 ], [ 30.34582, 59.98501 ], [ 30.34583, 59.98502 ] ] ] } },
{ "type": "Feature", "properties": { "height": 6.0, "match_type": "only_a", "height_source": "ml_predicted" }, "geometry": { "type": "Polygon", "coordinates": [ [ [ 30.34591, 59.98559 ], [ 30.3459, 59.98563 ], [ 30.34596, 59.98561 ], [ 30.34591, 59.98559 ] ] ] } },
{ "type": "Feature", "properties": { "height": 15.0, "match_type": "matched", "height_source": "source_b" }, "geometry": { "type": "Polygon", "coordinates": [ [ [ 30.345909, 59.987912999998677 ], [ 30.345864, 59.988027999998664 ], [ 30.346801, 59.988122999998666 ], [ 30.346848, 59.988008999998691 ], [ 30.345909, 59.987912999998677 ] ] ] } },
{ "type": "Feature", "properties": { "height": 3.3, "match_type": "only_a", "height_source": "ml_predicted" }, "geometry": { "type": "Polygon", "coordinates": [ [ [ 30.34593, 59.98393 ], [ 30.34584, 59.98392 ], [ 30.34577, 59.98409 ], [ 30.34586, 59.9841 ], [ 30.34593, 59.98393 ] ] ] } },
{ "type": "Feature", "properties": { "height": 9.9, "match_type": "matched", "height_source": "source_b" }, "geometry": { "type": "Polygon", "coordinates": [ [ [ 30.345762, 59.989353999998677 ], [ 30.34561, 59.989546999998673 ], [ 30.345881, 59.989600999998657 ], [ 30.346032, 59.989406999998671 ], [ 30.345762, 59.989353999998677 ] ] ] } },
{ "type": "Feature", "properties": { "height": 9.9, "match_type": "matched", "height_source": "source_b" }, "geometry": { "type": "Polygon", "coordinates": [ [ [ 30.345472, 59.98831099999866 ], [ 30.345433, 59.988415999998679 ], [ 30.34597, 59.988465999998667 ], [ 30.346008, 59.988360999998669 ], [ 30.345472, 59.98831099999866 ] ] ] } },
{ "type": "Feature", "properties": { "height": 4.5, "match_type": "matched", "height_source": "source_b" }, "geometry": { "type": "Polygon", "coordinates": [ [ [ 30.345927, 59.987044999998666 ], [ 30.345897, 59.987112999998658 ], [ 30.345748, 59.987095999998694 ], [ 30.345693, 59.987222999998657 ], [ 30.345877, 59.987242999998678 ], [ 30.345849, 59.987305999998682 ], [ 30.346013, 59.987323999998651 ], [ 30.346125, 59.987065999998663 ], [ 30.345927, 59.987044999998666 ] ] ] } },
{ "type": "Feature", "properties": { "height": 15.0, "match_type": "matched", "height_source": "source_b" }, "geometry": { "type": "Polygon", "coordinates": [ [ [ 30.346172, 59.98505499999866 ], [ 30.346128, 59.985166999998661 ], [ 30.346983, 59.985249999998672 ], [ 30.347027, 59.985137999998656 ], [ 30.346172, 59.98505499999866 ] ] ] } },
{ "type": "Feature", "properties": { "height": 7.6, "match_type": "only_a", "height_source": "ml_predicted" }, "geometry": { "type": "Polygon", "coordinates": [ [ [ 30.34612, 59.98587 ], [ 30.34597, 59.98586 ], [ 30.34594, 59.98591 ], [ 30.34609, 59.98593 ], [ 30.34612, 59.98587 ] ] ] } },
{ "type": "Feature", "properties": { "height": 15.0, "match_type": "matched", "height_source": "source_b" }, "geometry": { "type": "Polygon", "coordinates": [ [ [ 30.346266, 59.984336999998661 ], [ 30.346023, 59.984973999998658 ], [ 30.34625, 59.984997999998676 ], [ 30.34651, 59.984361999998654 ], [ 30.346266, 59.984336999998661 ] ] ] } },
{ "type": "Feature", "properties": { "height": 15.0, "match_type": "matched", "height_source": "source_b" }, "geometry": { "type": "Polygon", "coordinates": [ [ [ 30.346465, 59.98388299999867 ], [ 30.346283, 59.984309999998665 ], [ 30.346561, 59.98433999999866 ], [ 30.346744, 59.98391399999867 ], [ 30.346465, 59.98388299999867 ] ] ] } },
{ "type": "Feature", "properties": { "height": 4.6, "match_type": "only_a", "height_source": "ml_predicted" }, "geometry": { "type": "Polygon", "coordinates": [ [ [ 30.34627, 59.98846 ], [ 30.34617, 59.98845 ], [ 30.34615, 59.98849 ], [ 30.34625, 59.9885 ], [ 30.34627, 59.98846 ] ] ] } },
{ "type": "Feature", "properties": { "height": 6.6, "match_type": "matched", "height_source": "source_b" }, "geometry": { "type": "Polygon", "coordinates": [ [ [ 30.345946, 59.994514999998678 ], [ 30.346009, 59.994628999998682 ], [ 30.346303, 59.994587999998643 ], [ 30.346242, 59.994476999998682 ], [ 30.345946, 59.994514999998678 ] ] ] } },
{ "type": "Feature", "properties": { "height": 9.9, "match_type": "matched", "height_source": "source_b" }, "geometry": { "type": "Polygon", "coordinates": [ [ [ 30.345861, 59.99435999999865 ], [ 30.345946, 59.994514999998678 ], [ 30.346242, 59.994476999998682 ], [ 30.346158, 59.994319999998659 ], [ 30.345861, 59.99435999999865 ] ] ] } },
{ "type": "Feature", "properties": { "height": 6.6, "match_type": "matched", "height_source": "source_b" }, "geometry": { "type": "Polygon", "coordinates": [ [ [ 30.34582, 59.99428599999866 ], [ 30.345861, 59.99435999999865 ], [ 30.346158, 59.994319999998659 ], [ 30.346242, 59.994476999998682 ], [ 30.346492, 59.994442999998668 ], [ 30.346365, 59.994210999998685 ], [ 30.34582, 59.99428599999866 ] ] ] } },
{ "type": "Feature", "properties": { "height": 6.0, "match_type": "only_a", "height_source": "ml_predicted" }, "geometry": { "type": "Polygon", "coordinates": [ [ [ 30.34636, 59.98568 ], [ 30.34638, 59.98564 ], [ 30.34623, 59.98562 ], [ 30.34621, 59.98566 ], [ 30.34636, 59.98568 ] ] ] } },
{ "type": "Feature", "properties": { "height": 15.0, "match_type": "matched", "height_source": "source_b" }, "geometry": { "type": "Polygon", "coordinates": [ [ [ 30.345065, 59.987469999998694 ], [ 30.344927, 59.987825999998662 ], [ 30.34517, 59.987849999998673 ], [ 30.345263, 59.987611999998684 ], [ 30.346262, 59.987709999998664 ], [ 30.346308, 59.987592999998633 ], [ 30.345065, 59.987469999998694 ] ] ] } },
{ "type": "Feature", "properties": { "height": 15.0, "match_type": "matched", "height_source": "source_b" }, "geometry": { "type": "Polygon", "coordinates": [ [ [ 30.346497, 59.986036999998674 ], [ 30.34637, 59.98638999999865 ], [ 30.346762, 59.986447999998674 ], [ 30.346795, 59.986356999998655 ], [ 30.346634, 59.986341999998665 ], [ 30.346736, 59.98605899999864 ], [ 30.346497, 59.986036999998674 ] ] ] } },
{ "type": "Feature", "properties": { "height": 15.0, "match_type": "matched", "height_source": "source_b" }, "geometry": { "type": "Polygon", "coordinates": [ [ [ 30.346348, 59.987132999998657 ], [ 30.347002, 59.987198999998668 ], [ 30.347117, 59.986938999998671 ], [ 30.346467, 59.986866999998661 ], [ 30.346348, 59.987132999998657 ] ] ] } },
{ "type": "Feature", "properties": { "height": 8.3, "match_type": "only_a", "height_source": "ml_predicted" }, "geometry": { "type": "Polygon", "coordinates": [ [ [ 30.34645, 59.98574 ], [ 30.34651, 59.98571 ], [ 30.34646, 59.98571 ], [ 30.34645, 59.98574 ] ] ] } },
{ "type": "Feature", "properties": { "height": 4.5, "match_type": "matched", "height_source": "source_b" }, "geometry": { "type": "Polygon", "coordinates": [ [ [ 30.346202, 59.987245999998649 ], [ 30.346158, 59.987353999998668 ], [ 30.346443, 59.98738399999867 ], [ 30.346486, 59.987274999998689 ], [ 30.346202, 59.987245999998649 ] ] ] } },
{ "type": "Feature", "properties": { "height": 4.3, "match_type": "only_a", "height_source": "ml_predicted" }, "geometry": { "type": "Polygon", "coordinates": [ [ [ 30.34655, 59.99488 ], [ 30.34651, 59.99482 ], [ 30.34628, 59.99486 ], [ 30.34632, 59.99492 ], [ 30.34655, 59.99488 ] ] ] } },
{ "type": "Feature", "properties": { "height": 3.5, "match_type": "only_a", "height_source": "ml_predicted" }, "geometry": { "type": "Polygon", "coordinates": [ [ [ 30.34664, 59.98496 ], [ 30.34665, 59.98492 ], [ 30.34654, 59.9849 ], [ 30.34653, 59.98495 ], [ 30.34664, 59.98496 ] ] ] } },
{ "type": "Feature", "properties": { "height": 5.9, "match_type": "only_a", "height_source": "ml_predicted" }, "geometry": { "type": "Polygon", "coordinates": [ [ [ 30.34664, 59.98733 ], [ 30.34661, 59.9874 ], [ 30.34673, 59.98741 ], [ 30.34675, 59.98736 ], [ 30.34664, 59.98733 ] ] ] } },
{ "type": "Feature", "properties": { "height": 4.5, "match_type": "matched", "height_source": "source_b" }, "geometry": { "type": "Polygon", "coordinates": [ [ [ 30.347015, 59.98733899999867 ], [ 30.34678, 59.987335999998663 ], [ 30.34675, 59.987407999998666 ], [ 30.346975, 59.987430999998693 ], [ 30.347015, 59.98733899999867 ] ] ] } },
{ "type": "Feature", "properties": { "height": 4.5, "match_type": "matched", "height_source": "source_b" }, "geometry": { "type": "Polygon", "coordinates": [ [ [ 30.347157, 59.993925999998652 ], [ 30.346924, 59.994022999998663 ], [ 30.34699, 59.994063999998673 ], [ 30.346838, 59.994115999998677 ], [ 30.346675, 59.994049999998659 ], [ 30.346615, 59.994071999998681 ], [ 30.346784, 59.994248999998682 ], [ 30.347367, 59.994010999998665 ], [ 30.347157, 59.993925999998652 ] ] ] } },
{ "type": "Feature", "properties": { "height": 15.0, "match_type": "matched", "height_source": "source_b" }, "geometry": { "type": "Polygon", "coordinates": [ [ [ 30.347004, 59.989240999998664 ], [ 30.347241, 59.989265999998672 ], [ 30.347318, 59.989058999998655 ], [ 30.347084, 59.989037999998672 ], [ 30.347004, 59.989240999998664 ] ] ] } },
{ "type": "Feature", "properties": { "height": 15.0, "match_type": "matched", "height_source": "source_b" }, "geometry": { "type": "Polygon", "coordinates": [ [ [ 30.347241, 59.989265999998672 ], [ 30.346003, 59.989143999998689 ], [ 30.345961, 59.989262999998672 ], [ 30.347197, 59.989382999998675 ], [ 30.347241, 59.989265999998672 ] ] ] } },
{ "type": "Feature", "properties": { "height": 4.7, "match_type": "only_a", "height_source": "ml_predicted" }, "geometry": { "type": "Polygon", "coordinates": [ [ [ 30.34708, 59.98404 ], [ 30.3471, 59.984 ], [ 30.34701, 59.98399 ], [ 30.34699, 59.98403 ], [ 30.34708, 59.98404 ] ] ] } },
{ "type": "Feature", "properties": { "height": 4.5, "match_type": "matched", "height_source": "source_b" }, "geometry": { "type": "Polygon", "coordinates": [ [ [ 30.346966, 59.984170999998653 ], [ 30.346939, 59.984236999998672 ], [ 30.347054, 59.984248999998655 ], [ 30.347081, 59.984182999998659 ], [ 30.346966, 59.984170999998653 ] ] ] } },
{ "type": "Feature", "properties": { "height": 15.0, "match_type": "matched", "height_source": "source_b" }, "geometry": { "type": "Polygon", "coordinates": [ [ [ 30.346795, 59.986356999998655 ], [ 30.346733, 59.986522999998677 ], [ 30.347162, 59.986562999998661 ], [ 30.347225, 59.986397999998651 ], [ 30.346795, 59.986356999998655 ] ] ] } },
{ "type": "Feature", "properties": { "height": 6.6, "match_type": "matched", "height_source": "source_b" }, "geometry": { "type": "Polygon", "coordinates": [ [ [ 30.346903, 59.986065999998679 ], [ 30.346808, 59.986321999998673 ], [ 30.347236, 59.98636199999865 ], [ 30.34733, 59.986106999998661 ], [ 30.346903, 59.986065999998679 ] ] ] } },
{ "type": "Feature", "properties": { "height": 9.9, "match_type": "matched", "height_source": "source_b" }, "geometry": { "type": "Polygon", "coordinates": [ [ [ 30.347332, 59.984971999998663 ], [ 30.347285, 59.985083999998665 ], [ 30.347808, 59.985135999998661 ], [ 30.347851, 59.985024999998686 ], [ 30.347332, 59.984971999998663 ] ] ] } },
{ "type": "Feature", "properties": { "height": 9.9, "match_type": "matched", "height_source": "source_b" }, "geometry": { "type": "Polygon", "coordinates": [ [ [ 30.347118, 59.987920999998671 ], [ 30.347021, 59.988147999998652 ], [ 30.347207, 59.988168999998656 ], [ 30.347304, 59.987941999998668 ], [ 30.347118, 59.987920999998671 ] ] ] } },
{ "type": "Feature", "properties": { "height": 6.6, "match_type": "matched", "height_source": "source_b" }, "geometry": { "type": "Polygon", "coordinates": [ [ [ 30.347018, 59.987257999998661 ], [ 30.347207, 59.987308999998682 ], [ 30.347302, 59.98728899999869 ], [ 30.347346, 59.987185999998665 ], [ 30.347147, 59.987164999998683 ], [ 30.347214, 59.987136999998675 ], [ 30.347254, 59.987043999998654 ], [ 30.347177, 59.98703599999866 ], [ 30.34714, 59.987120999998673 ], [ 30.347081, 59.987114999998653 ], [ 30.347018, 59.987257999998661 ] ] ] } },
{ "type": "Feature", "properties": { "height": 4.5, "match_type": "matched", "height_source": "source_b" }, "geometry": { "type": "Polygon", "coordinates": [ [ [ 30.34745, 59.987048999998656 ], [ 30.347441, 59.987086999998652 ], [ 30.347509, 59.987090999998649 ], [ 30.347518, 59.987053999998693 ], [ 30.34745, 59.987048999998656 ] ] ] } },
{ "type": "Feature", "properties": { "height": 4.5, "match_type": "matched", "height_source": "source_b" }, "geometry": { "type": "Polygon", "coordinates": [ [ [ 30.347351, 59.987407999998666 ], [ 30.347321, 59.987479999998669 ], [ 30.347385, 59.987485999998682 ], [ 30.347415, 59.98741399999868 ], [ 30.347351, 59.987407999998666 ] ] ] } },
{ "type": "Feature", "properties": { "height": 15.0, "match_type": "matched", "height_source": "source_b" }, "geometry": { "type": "Polygon", "coordinates": [ [ [ 30.346832, 59.984464999998686 ], [ 30.34679, 59.984579999998651 ], [ 30.347471, 59.984647999998657 ], [ 30.34751, 59.984535999998656 ], [ 30.346832, 59.984464999998686 ] ] ] } },
{ "type": "Feature", "properties": { "height": 15.0, "match_type": "matched", "height_source": "source_b" }, "geometry": { "type": "Polygon", "coordinates": [ [ [ 30.347757, 59.987830999998671 ], [ 30.347508, 59.988462999998667 ], [ 30.347724, 59.988484999998676 ], [ 30.347973, 59.987851999998654 ], [ 30.347757, 59.987830999998671 ] ] ] } },
{ "type": "Feature", "properties": { "height": 6.6, "match_type": "only_a", "height_source": "ml_predicted" }, "geometry": { "type": "Polygon", "coordinates": [ [ [ 30.34742, 59.98543 ], [ 30.34751, 59.98542 ], [ 30.34742, 59.98542 ], [ 30.34742, 59.98543 ] ] ] } },
{ "type": "Feature", "properties": { "height": 5.6, "match_type": "only_a", "height_source": "ml_predicted" }, "geometry": { "type": "Polygon", "coordinates": [ [ [ 30.34757, 59.98406 ], [ 30.34752, 59.98417 ], [ 30.34766, 59.98418 ], [ 30.3477, 59.98407 ], [ 30.34757, 59.98406 ] ] ] } },
{ "type": "Feature", "properties": { "height": 7.6, "match_type": "only_a", "height_source": "ml_predicted" }, "geometry": { "type": "Polygon", "coordinates": [ [ [ 30.34763, 59.98438 ], [ 30.34771, 59.98439 ], [ 30.3477, 59.98445 ], [ 30.34785, 59.98446 ], [ 30.34787, 59.9844 ], [ 30.34774, 59.98439 ], [ 30.3478, 59.98423 ], [ 30.34769, 59.98421 ], [ 30.34763, 59.98438 ] ] ] } },
{ "type": "Feature", "properties": { "height": 15.0, "match_type": "matched", "height_source": "source_b" }, "geometry": { "type": "Polygon", "coordinates": [ [ [ 30.346743, 59.987619999998664 ], [ 30.346696, 59.987725999998666 ], [ 30.347624, 59.987830999998643 ], [ 30.347671, 59.987724999998683 ], [ 30.346743, 59.987619999998664 ] ] ] } },
{ "type": "Feature", "properties": { "height": 15.0, "match_type": "matched", "height_source": "source_b" }, "geometry": { "type": "Polygon", "coordinates": [ [ [ 30.347505, 59.986141999998672 ], [ 30.347389, 59.986423999998671 ], [ 30.347222, 59.986405999998674 ], [ 30.347184, 59.986496999998664 ], [ 30.347613, 59.986527999998671 ], [ 30.347761, 59.986167999998663 ], [ 30.347505, 59.986141999998672 ] ] ] } },
{ "type": "Feature", "properties": { "height": 38.0, "match_type": "matched", "height_source": "source_b" }, "geometry": { "type": "Polygon", "coordinates": [ [ [ 30.348181000074618, 59.984271999682548 ], [ 30.348247000246502, 59.984101000341546 ], [ 30.347826999708651, 59.984060000422602 ], [ 30.347759999900138, 59.984230000224606 ], [ 30.348181000074618, 59.984271999682548 ] ] ] } },
{ "type": "Feature", "properties": { "height": 15.0, "match_type": "matched", "height_source": "source_b" }, "geometry": { "type": "Polygon", "coordinates": [ [ [ 30.347963, 59.985237999998688 ], [ 30.347922, 59.985352999998668 ], [ 30.348772, 59.985436999998633 ], [ 30.348814, 59.98532399999867 ], [ 30.347963, 59.985237999998688 ] ] ] } },
{ "type": "Feature", "properties": { "height": 15.0, "match_type": "matched", "height_source": "source_b" }, "geometry": { "type": "Polygon", "coordinates": [ [ [ 30.348469, 59.985936999998664 ], [ 30.348357, 59.986247999998682 ], [ 30.348227, 59.986237999998671 ], [ 30.348115, 59.986551999998674 ], [ 30.347991, 59.986544999998664 ], [ 30.347876, 59.986879999998678 ], [ 30.348004, 59.986890999998685 ], [ 30.347875, 59.987206999998669 ], [ 30.348014, 59.987219999998672 ], [ 30.347903, 59.987533999998668 ], [ 30.348136, 59.987553999998667 ], [ 30.348272, 59.987197999998664 ], [ 30.348132, 59.98718599999868 ], [ 30.348259, 59.986870999998679 ], [ 30.348134, 59.986858999998681 ], [ 30.348213, 59.986605999998659 ], [ 30.348347, 59.986609999998663 ], [ 30.348461, 59.986298999998667 ], [ 30.348585, 59.986307999998651 ], [ 30.348706, 59.985958999998658 ], [ 30.348469, 59.985936999998664 ] ] ] } },
{ "type": "Feature", "properties": { "height": 15.0, "match_type": "matched", "height_source": "source_b" }, "geometry": { "type": "Polygon", "coordinates": [ [ [ 30.346438, 59.985744999998666 ], [ 30.346388, 59.985881999998675 ], [ 30.347918, 59.986018999998656 ], [ 30.347966, 59.98588399999867 ], [ 30.346438, 59.985744999998666 ] ] ] } },
{ "type": "Feature", "properties": { "height": 4.9, "match_type": "only_a", "height_source": "ml_predicted" }, "geometry": { "type": "Polygon", "coordinates": [ [ [ 30.34813, 59.9844 ], [ 30.34817, 59.98429 ], [ 30.34807, 59.98428 ], [ 30.34803, 59.98439 ], [ 30.34813, 59.9844 ] ] ] } },
{ "type": "Feature", "properties": { "height": 54.0, "match_type": "matched", "height_source": "source_b" }, "geometry": { "type": "Polygon", "coordinates": [ [ [ 30.349071, 59.984224999998652 ], [ 30.349043, 59.984307999998663 ], [ 30.349266, 59.984326999998657 ], [ 30.349295, 59.984243999998675 ], [ 30.349071, 59.984224999998652 ] ] ] } },
{ "type": "Feature", "properties": { "height": 54.0, "match_type": "matched", "height_source": "source_b" }, "geometry": { "type": "Polygon", "coordinates": [ [ [ 30.349132, 59.984094999998646 ], [ 30.349103, 59.984178999998662 ], [ 30.349326, 59.984197999998671 ], [ 30.349355, 59.984114999998674 ], [ 30.349132, 59.984094999998646 ] ] ] } },
{ "type": "Feature", "properties": { "height": 30.0, "match_type": "matched", "height_source": "source_b" }, "geometry": { "type": "Polygon", "coordinates": [ [ [ 30.348156, 59.995827999998667 ], [ 30.348234, 59.99581799999865 ], [ 30.348205, 59.995760999998652 ], [ 30.348127, 59.995770999998669 ], [ 30.348156, 59.995827999998667 ] ] ] } },
{ "type": "Feature", "properties": { "height": 27.0, "match_type": "matched", "height_source": "source_b" }, "geometry": { "type": "Polygon", "coordinates": [ [ [ 30.348254, 59.995678999998674 ], [ 30.348025, 59.995709999998681 ], [ 30.348082, 59.995810999998675 ], [ 30.348013, 59.995819999998659 ], [ 30.348068, 59.995918999998679 ], [ 30.348363, 59.995879999998692 ], [ 30.348254, 59.995678999998674 ] ], [ [ 30.348156, 59.995827999998667 ], [ 30.348127, 59.995770999998669 ], [ 30.348205, 59.995760999998652 ], [ 30.348234, 59.99581799999865 ], [ 30.348156, 59.995827999998667 ] ] ] } },
{ "type": "Feature", "properties": { "height": 8.2, "match_type": "only_a", "height_source": "ml_predicted" }, "geometry": { "type": "Polygon", "coordinates": [ [ [ 30.3486, 59.99066 ], [ 30.34864, 59.9907 ], [ 30.34864, 59.99066 ], [ 30.3486, 59.99066 ] ] ] } },
{ "type": "Feature", "properties": { "height": 4.5, "match_type": "matched", "height_source": "source_b" }, "geometry": { "type": "Polygon", "coordinates": [ [ [ 30.348265, 59.988412999998658 ], [ 30.348204, 59.988614999998681 ], [ 30.348606, 59.988645999998653 ], [ 30.348666, 59.988442999998675 ], [ 30.348265, 59.988412999998658 ] ] ] } },
{ "type": "Feature", "properties": { "height": 4.5, "match_type": "matched", "height_source": "source_b" }, "geometry": { "type": "Polygon", "coordinates": [ [ [ 30.348638, 59.987914999998658 ], [ 30.348485, 59.988300999998671 ], [ 30.34909, 59.988357999998655 ], [ 30.349241, 59.987969999998676 ], [ 30.348638, 59.987914999998658 ] ] ] } },
{ "type": "Feature", "properties": { "height": 15.0, "match_type": "matched", "height_source": "source_b" }, "geometry": { "type": "Polygon", "coordinates": [ [ [ 30.348017, 59.984583999998684 ], [ 30.347976, 59.984699999998661 ], [ 30.348677, 59.984768999998678 ], [ 30.348723, 59.984650999998678 ], [ 30.348017, 59.984583999998684 ] ] ] } },
{ "type": "Feature", "properties": { "height": 15.0, "match_type": "matched", "height_source": "source_b" }, "geometry": { "type": "Polygon", "coordinates": [ [ [ 30.349058, 59.98462199999868 ], [ 30.348807, 59.985255999998678 ], [ 30.349036, 59.985279999998674 ], [ 30.349287, 59.984642999998677 ], [ 30.349058, 59.98462199999868 ] ] ] } },
{ "type": "Feature", "properties": { "height": 9.9, "match_type": "matched", "height_source": "source_b" }, "geometry": { "type": "Polygon", "coordinates": [ [ [ 30.34902, 59.987478999998665 ], [ 30.348926, 59.987705999998674 ], [ 30.349149, 59.987728999998666 ], [ 30.349244, 59.987499999998676 ], [ 30.34902, 59.987478999998665 ] ] ] } },
{ "type": "Feature", "properties": { "height": 37.1, "match_type": "only_a", "height_source": "ml_predicted" }, "geometry": { "type": "Polygon", "coordinates": [ [ [ 30.34905, 59.98431 ], [ 30.34917, 59.98407 ], [ 30.34901, 59.98405 ], [ 30.34805, 59.98369 ], [ 30.34783, 59.98369 ], [ 30.34745, 59.98383 ], [ 30.34731, 59.98375 ], [ 30.34716, 59.98374 ], [ 30.34711, 59.98387 ], [ 30.34721, 59.98396 ], [ 30.34775, 59.98401 ], [ 30.34777, 59.98396 ], [ 30.34857, 59.98404 ], [ 30.34852, 59.98417 ], [ 30.34842, 59.98417 ], [ 30.34837, 59.98433 ], [ 30.34906, 59.98439 ], [ 30.34905, 59.98431 ] ] ] } },
{ "type": "Feature", "properties": { "height": 4.5, "match_type": "matched", "height_source": "source_b" }, "geometry": { "type": "Polygon", "coordinates": [ [ [ 30.349186, 59.991123999998649 ], [ 30.348851, 59.99125099999867 ], [ 30.34899, 59.991342999998679 ], [ 30.349326, 59.991215999998673 ], [ 30.349186, 59.991123999998649 ] ] ] } },
{ "type": "Feature", "properties": { "height": 4.2, "match_type": "only_a", "height_source": "ml_predicted" }, "geometry": { "type": "Polygon", "coordinates": [ [ [ 30.34932, 59.99389 ], [ 30.34926, 59.9938 ], [ 30.34912, 59.99382 ], [ 30.34917, 59.99391 ], [ 30.34932, 59.99389 ] ] ] } },
{ "type": "Feature", "properties": { "height": 9.9, "match_type": "matched", "height_source": "source_b" }, "geometry": { "type": "Polygon", "coordinates": [ [ [ 30.350068, 59.995643999998663 ], [ 30.348934, 59.995806999998671 ], [ 30.348991, 59.995905999998669 ], [ 30.349417, 59.995836999998687 ], [ 30.349456, 59.995903999998674 ], [ 30.349735, 59.995863999998683 ], [ 30.349694, 59.995792999998656 ], [ 30.350123, 59.995739999998662 ], [ 30.350068, 59.995643999998663 ] ] ] } },
{ "type": "Feature", "properties": { "height": 9.9, "match_type": "matched", "height_source": "source_b" }, "geometry": { "type": "Polygon", "coordinates": [ [ [ 30.348889, 59.987466999998681 ], [ 30.349244, 59.987499999998676 ], [ 30.349635, 59.986439999998666 ], [ 30.349276, 59.986410999998668 ], [ 30.348889, 59.987466999998681 ] ] ] } },
{ "type": "Feature", "properties": { "height": 13.2, "match_type": "matched", "height_source": "source_b" }, "geometry": { "type": "Polygon", "coordinates": [ [ [ 30.349979, 59.986545999998668 ], [ 30.350029, 59.986390999998655 ], [ 30.349949, 59.986383999998665 ], [ 30.349963, 59.986209999998664 ], [ 30.349874, 59.986148999998633 ], [ 30.349691, 59.986172999998665 ], [ 30.349551, 59.986347999998657 ], [ 30.349449, 59.986337999998682 ], [ 30.349418, 59.986423999998657 ], [ 30.349635, 59.986439999998666 ], [ 30.349605, 59.986511999998669 ], [ 30.349979, 59.986545999998668 ] ] ] } },
{ "type": "Feature", "properties": { "height": 15.0, "match_type": "matched", "height_source": "source_b" }, "geometry": { "type": "Polygon", "coordinates": [ [ [ 30.349769, 59.985506999998684 ], [ 30.349729, 59.985620999998673 ], [ 30.351001, 59.985742999998671 ], [ 30.351045, 59.985625999998668 ], [ 30.349769, 59.985506999998684 ] ] ] } },
{ "type": "Feature", "properties": { "height": 6.6, "match_type": "matched", "height_source": "source_b" }, "geometry": { "type": "Polygon", "coordinates": [ [ [ 30.349662, 59.987762999998672 ], [ 30.349623, 59.987856999998662 ], [ 30.349793, 59.987874999998667 ], [ 30.349833, 59.987780999998655 ], [ 30.349662, 59.987762999998672 ] ] ] } },
{ "type": "Feature", "properties": { "height": 5.4, "match_type": "only_a", "height_source": "ml_predicted" }, "geometry": { "type": "Polygon", "coordinates": [ [ [ 30.3498, 59.98496 ], [ 30.34989, 59.98493 ], [ 30.34982, 59.98492 ], [ 30.3498, 59.98496 ] ] ] } },
{ "type": "Feature", "properties": { "height": 6.5, "match_type": "only_a", "height_source": "ml_predicted" }, "geometry": { "type": "Polygon", "coordinates": [ [ [ 30.34988, 59.99212 ], [ 30.34994, 59.9921 ], [ 30.34984, 59.99209 ], [ 30.34988, 59.99212 ] ] ] } },
{ "type": "Feature", "properties": { "height": 4.5, "match_type": "matched", "height_source": "source_b" }, "geometry": { "type": "Polygon", "coordinates": [ [ [ 30.349782, 59.98662699999867 ], [ 30.349772, 59.986675999998695 ], [ 30.34986, 59.986679999998664 ], [ 30.34987, 59.986631999998664 ], [ 30.349782, 59.98662699999867 ] ] ] } },
{ "type": "Feature", "properties": { "height": 13.2, "match_type": "matched", "height_source": "source_b" }, "geometry": { "type": "Polygon", "coordinates": [ [ [ 30.350362, 59.984497999998659 ], [ 30.350108, 59.985152999998682 ], [ 30.350326, 59.985172999998696 ], [ 30.350367, 59.985073999998676 ], [ 30.350665, 59.985101999998655 ], [ 30.350715, 59.984969999998654 ], [ 30.350414, 59.984940999998685 ], [ 30.350547, 59.984583999998669 ], [ 30.35115, 59.984634999998669 ], [ 30.351195, 59.984523999998636 ], [ 30.350481, 59.984460999998653 ], [ 30.35046, 59.984509999998686 ], [ 30.350362, 59.984497999998659 ] ] ] } },
{ "type": "Feature", "properties": { "height": 9.9, "match_type": "matched", "height_source": "source_b" }, "geometry": { "type": "Polygon", "coordinates": [ [ [ 30.350018, 59.986423999998657 ], [ 30.349979, 59.986545999998668 ], [ 30.350155, 59.986561999998663 ], [ 30.350138, 59.986609999998663 ], [ 30.350896, 59.986679999998678 ], [ 30.350884, 59.986710999998699 ], [ 30.351005, 59.986721999998679 ], [ 30.351079, 59.986521999998672 ], [ 30.350018, 59.986423999998657 ] ] ] } },
{ "type": "Feature", "properties": { "height": 4.5, "match_type": "matched", "height_source": "source_b" }, "geometry": { "type": "Polygon", "coordinates": [ [ [ 30.35033, 59.984571999998657 ], [ 30.350362, 59.984497999998659 ], [ 30.35046, 59.984509999998686 ], [ 30.350477, 59.98446999999868 ], [ 30.350073, 59.984425999998678 ], [ 30.350025, 59.984538999998669 ], [ 30.35033, 59.984571999998657 ] ] ] } },
{ "type": "Feature", "properties": { "height": 4.5, "match_type": "matched", "height_source": "source_b" }, "geometry": { "type": "Polygon", "coordinates": [ [ [ 30.350284, 59.993771999998678 ], [ 30.350173, 59.993811999998684 ], [ 30.350257, 59.993870999998663 ], [ 30.350369, 59.993831999998662 ], [ 30.350284, 59.993771999998678 ] ] ] } },
{ "type": "Feature", "properties": { "height": 4.5, "match_type": "matched", "height_source": "source_b" }, "geometry": { "type": "Polygon", "coordinates": [ [ [ 30.350402, 59.993895999998671 ], [ 30.350313, 59.993923999998678 ], [ 30.350371, 59.993969999998662 ], [ 30.35046, 59.99394199999869 ], [ 30.350402, 59.993895999998671 ] ] ] } },
{ "type": "Feature", "properties": { "height": 8.0, "match_type": "matched", "height_source": "source_b" }, "geometry": { "type": "Polygon", "coordinates": [ [ [ 30.350301, 59.990566999998677 ], [ 30.350259, 59.990812999998681 ], [ 30.351001, 59.990845999998669 ], [ 30.35101, 59.990791999998663 ], [ 30.35044, 59.990766999998655 ], [ 30.350473, 59.990574999998671 ], [ 30.350301, 59.990566999998677 ] ] ] } },
{ "type": "Feature", "properties": { "height": 15.0, "match_type": "matched", "height_source": "source_b" }, "geometry": { "type": "Polygon", "coordinates": [ [ [ 30.350758, 59.995611999998673 ], [ 30.35055, 59.995636999998688 ], [ 30.350805, 59.996133999998669 ], [ 30.351013, 59.99610099999866 ], [ 30.350758, 59.995611999998673 ] ] ] } },
{ "type": "Feature", "properties": { "height": 8.0, "match_type": "matched", "height_source": "source_b" }, "geometry": { "type": "Polygon", "coordinates": [ [ [ 30.350691, 59.990604999998659 ], [ 30.350668, 59.990710999998676 ], [ 30.351, 59.990730999998689 ], [ 30.350971, 59.990619999998671 ], [ 30.350691, 59.990604999998659 ] ] ] } },
{ "type": "Feature", "properties": { "height": 9.9, "match_type": "matched", "height_source": "source_b" }, "geometry": { "type": "Polygon", "coordinates": [ [ [ 30.351028, 59.991691999998658 ], [ 30.350112, 59.991978999998686 ], [ 30.351108, 59.992734999998675 ], [ 30.351982, 59.992450999998681 ], [ 30.351028, 59.991691999998658 ] ], [ [ 30.350937, 59.991826999998644 ], [ 30.351632, 59.99235299999868 ], [ 30.351163, 59.992508999998655 ], [ 30.350995, 59.992380999998659 ], [ 30.351127, 59.992337999998682 ], [ 30.350815, 59.992101999998667 ], [ 30.350689, 59.992143999998667 ], [ 30.350473, 59.991980999998681 ], [ 30.350937, 59.991826999998644 ] ] ] } },
{ "type": "Feature", "properties": { "height": 5.6, "match_type": "only_a", "height_source": "ml_predicted" }, "geometry": { "type": "Polygon", "coordinates": [ [ [ 30.35117, 59.98576 ], [ 30.35118, 59.98573 ], [ 30.35109, 59.98575 ], [ 30.35117, 59.98576 ] ] ] } },
{ "type": "Feature", "properties": { "height": 4.5, "match_type": "only_a", "height_source": "ml_predicted" }, "geometry": { "type": "Polygon", "coordinates": [ [ [ 30.3512, 59.98477 ], [ 30.35118, 59.98484 ], [ 30.35126, 59.98484 ], [ 30.35128, 59.98478 ], [ 30.3512, 59.98477 ] ] ] } },
{ "type": "Feature", "properties": { "height": 15.0, "match_type": "matched", "height_source": "source_b" }, "geometry": { "type": "Polygon", "coordinates": [ [ [ 30.351901, 59.984983999998676 ], [ 30.351677, 59.984963999998683 ], [ 30.351356, 59.985783999998695 ], [ 30.351577, 59.985809999998672 ], [ 30.351901, 59.984983999998676 ] ] ] } },
{ "type": "Feature", "properties": { "height": 4.5, "match_type": "matched", "height_source": "source_b" }, "geometry": { "type": "Polygon", "coordinates": [ [ [ 30.351314, 59.984613999998658 ], [ 30.351289, 59.984678999998664 ], [ 30.351396, 59.984688999998674 ], [ 30.351421, 59.984623999998647 ], [ 30.351314, 59.984613999998658 ] ] ] } },
{ "type": "Feature", "properties": { "height": 15.0, "match_type": "matched", "height_source": "source_b" }, "geometry": { "type": "Polygon", "coordinates": [ [ [ 30.35064, 59.983943999998672 ], [ 30.350599, 59.984052999998696 ], [ 30.351534, 59.984139999998682 ], [ 30.351574, 59.984032999998682 ], [ 30.35064, 59.983943999998672 ] ] ] } },
{ "type": "Feature", "properties": { "height": 4.5, "match_type": "matched", "height_source": "source_b" }, "geometry": { "type": "Polygon", "coordinates": [ [ [ 30.351599, 59.984276999998663 ], [ 30.351527, 59.984416999998672 ], [ 30.351848, 59.984457999998654 ], [ 30.35192, 59.984319999998654 ], [ 30.351599, 59.984276999998663 ] ] ] } },
{ "type": "Feature", "properties": { "height": 4.5, "match_type": "matched", "height_source": "source_b" }, "geometry": { "type": "Polygon", "coordinates": [ [ [ 30.351446, 59.984759999998666 ], [ 30.351419, 59.984846999998666 ], [ 30.351534, 59.984855999998651 ], [ 30.351561, 59.984769999998655 ], [ 30.351446, 59.984759999998666 ] ] ] } },
{ "type": "Feature", "properties": { "height": 8.5, "match_type": "only_a", "height_source": "ml_predicted" }, "geometry": { "type": "Polygon", "coordinates": [ [ [ 30.35163, 59.99311 ], [ 30.35154, 59.99317 ], [ 30.35162, 59.9932 ], [ 30.35171, 59.99314 ], [ 30.35163, 59.99311 ] ] ] } },
{ "type": "Feature", "properties": { "height": 8.0, "match_type": "matched", "height_source": "source_b" }, "geometry": { "type": "Polygon", "coordinates": [ [ [ 30.351226, 59.990628999998677 ], [ 30.351196, 59.990747999998668 ], [ 30.351614, 59.990773999998666 ], [ 30.351644, 59.990655999998673 ], [ 30.351226, 59.990628999998677 ] ] ] } },
{ "type": "Feature", "properties": { "height": 30.0, "match_type": "matched", "height_source": "source_b" }, "geometry": { "type": "Polygon", "coordinates": [ [ [ 30.35169899924221, 59.992718000415948 ], [ 30.351623000328495, 59.992748999563943 ], [ 30.351732999926686, 59.992815999882623 ], [ 30.351809000756774, 59.992784999810837 ], [ 30.35169899924221, 59.992718000415948 ] ] ] } },
{ "type": "Feature", "properties": { "height": 4.5, "match_type": "matched", "height_source": "source_b" }, "geometry": { "type": "Polygon", "coordinates": [ [ [ 30.351762, 59.984690999998662 ], [ 30.351669, 59.984865999998668 ], [ 30.351776, 59.984880999998659 ], [ 30.351869, 59.984704999998662 ], [ 30.351762, 59.984690999998662 ] ] ] } },
{ "type": "Feature", "properties": { "height": 15.0, "match_type": "matched", "height_source": "source_b" }, "geometry": { "type": "Polygon", "coordinates": [ [ [ 30.351634, 59.995224999998662 ], [ 30.351414, 59.995255999998683 ], [ 30.351829, 59.996013999998659 ], [ 30.352049, 59.995984999998676 ], [ 30.351634, 59.995224999998662 ] ] ] } },
{ "type": "Feature", "properties": { "height": 4.5, "match_type": "matched", "height_source": "source_b" }, "geometry": { "type": "Polygon", "coordinates": [ [ [ 30.351719999860229, 59.991826999980681 ], [ 30.351629000560379, 59.991858999905453 ], [ 30.351822000525591, 59.991995000387327 ], [ 30.351913000019639, 59.991963000331388 ], [ 30.351719999860229, 59.991826999980681 ] ] ] } },
{ "type": "Feature", "properties": { "height": 6.2, "match_type": "only_a", "height_source": "ml_predicted" }, "geometry": { "type": "Polygon", "coordinates": [ [ [ 30.35201, 59.99335 ], [ 30.35211, 59.99328 ], [ 30.35197, 59.99322 ], [ 30.35186, 59.99329 ], [ 30.35201, 59.99335 ] ] ] } },
{ "type": "Feature", "properties": { "height": 6.9, "match_type": "only_a", "height_source": "ml_predicted" }, "geometry": { "type": "Polygon", "coordinates": [ [ [ 30.35206, 59.99324 ], [ 30.35214, 59.99319 ], [ 30.35205, 59.99316 ], [ 30.35197, 59.99321 ], [ 30.35206, 59.99324 ] ] ] } },
{ "type": "Feature", "properties": { "height": 5.8, "match_type": "only_a", "height_source": "ml_predicted" }, "geometry": { "type": "Polygon", "coordinates": [ [ [ 30.3523, 59.99058 ], [ 30.35234, 59.99061 ], [ 30.35235, 59.99058 ], [ 30.3523, 59.99058 ] ] ] } },
{ "type": "Feature", "properties": { "height": 8.0, "match_type": "matched", "height_source": "source_b" }, "geometry": { "type": "Polygon", "coordinates": [ [ [ 30.351949, 59.990633999998664 ], [ 30.35171, 59.990629999998696 ], [ 30.351698, 59.990784999998688 ], [ 30.352244, 59.990795999998682 ], [ 30.352256, 59.990645999998684 ], [ 30.351945, 59.990669999998651 ], [ 30.351949, 59.990633999998664 ] ] ] } },
{ "type": "Feature", "properties": { "height": 4.9, "match_type": "only_a", "height_source": "ml_predicted" }, "geometry": { "type": "Polygon", "coordinates": [ [ [ 30.35235, 59.9924 ], [ 30.35244, 59.99237 ], [ 30.35239, 59.99233 ], [ 30.35229, 59.99236 ], [ 30.35235, 59.9924 ] ] ] } },
{ "type": "Feature", "properties": { "height": 4.5, "match_type": "matched", "height_source": "source_b" }, "geometry": { "type": "Polygon", "coordinates": [ [ [ 30.352355000762049, 59.992121999830353 ], [ 30.352045000518878, 59.992214999770404 ], [ 30.352171999534502, 59.992321000140642 ], [ 30.3524809997541, 59.992227999599542 ], [ 30.352355000762049, 59.992121999830353 ] ] ] } },
{ "type": "Feature", "properties": { "height": 4.5, "match_type": "matched", "height_source": "source_b" }, "geometry": { "type": "Polygon", "coordinates": [ [ [ 30.35252, 59.990812999998681 ], [ 30.352509, 59.990869999998665 ], [ 30.352689, 59.990879999998683 ], [ 30.352701, 59.99082199999868 ], [ 30.35252, 59.990812999998681 ] ] ] } },
{ "type": "Feature", "properties": { "height": 5.7, "match_type": "only_a", "height_source": "ml_predicted" }, "geometry": { "type": "Polygon", "coordinates": [ [ [ 30.35264, 59.99057 ], [ 30.35278, 59.99058 ], [ 30.35279, 59.99053 ], [ 30.35265, 59.99052 ], [ 30.35264, 59.99057 ] ] ] } },
{ "type": "Feature", "properties": { "height": 15.0, "match_type": "matched", "height_source": "source_b" }, "geometry": { "type": "Polygon", "coordinates": [ [ [ 30.353082, 59.985216999998663 ], [ 30.352823, 59.985872999998676 ], [ 30.354072, 59.985996999998662 ], [ 30.354131, 59.985847999998683 ], [ 30.354211, 59.985855999998648 ], [ 30.354364, 59.98546899999868 ], [ 30.355155, 59.985546999998675 ], [ 30.355203, 59.985426999998673 ], [ 30.353082, 59.985216999998663 ] ] ] } },
{ "type": "Feature", "properties": { "height": 8.0, "match_type": "matched", "height_source": "source_b" }, "geometry": { "type": "Polygon", "coordinates": [ [ [ 30.352615, 59.990575999998676 ], [ 30.352418, 59.990689999998665 ], [ 30.352444, 59.990762999998672 ], [ 30.352749, 59.990775999998675 ], [ 30.352753, 59.990731999998651 ], [ 30.352796, 59.990733999998675 ], [ 30.35277, 59.990655999998687 ], [ 30.352723, 59.990653999998663 ], [ 30.352731, 59.990598999998674 ], [ 30.352615, 59.990575999998676 ] ] ] } },
{ "type": "Feature", "properties": { "height": 9.9, "match_type": "matched", "height_source": "source_b" }, "geometry": { "type": "Polygon", "coordinates": [ [ [ 30.352983, 59.995724999998664 ], [ 30.352771, 59.995788999998688 ], [ 30.352836, 59.995914999998668 ], [ 30.353254, 59.995849999998676 ], [ 30.353168, 59.995736999998648 ], [ 30.353002, 59.995758999998657 ], [ 30.352983, 59.995724999998664 ] ] ] } },
{ "type": "Feature", "properties": { "height": 4.5, "match_type": "matched", "height_source": "source_b" }, "geometry": { "type": "Polygon", "coordinates": [ [ [ 30.352752999893021, 59.992174999860126 ], [ 30.352607000544879, 59.992245000418208 ], [ 30.352686999487698, 59.992287000133459 ], [ 30.352833000575426, 59.99221700042029 ], [ 30.352752999893021, 59.992174999860126 ] ] ] } },
{ "type": "Feature", "properties": { "height": 9.9, "match_type": "matched", "height_source": "source_b" }, "geometry": { "type": "Polygon", "coordinates": [ [ [ 30.353002, 59.99515299999868 ], [ 30.353142, 59.995388999998674 ], [ 30.353354, 59.99535699999867 ], [ 30.353241, 59.995164999998664 ], [ 30.353002, 59.99515299999868 ] ] ] } },
{ "type": "Feature", "properties": { "height": 9.9, "match_type": "matched", "height_source": "source_b" }, "geometry": { "type": "Polygon", "coordinates": [ [ [ 30.353564, 59.995116999998679 ], [ 30.353677, 59.99530799999868 ], [ 30.353894, 59.995275999998647 ], [ 30.353759, 59.995046999998671 ], [ 30.353564, 59.995116999998679 ] ] ] } },
{ "type": "Feature", "properties": { "height": 13.2, "match_type": "matched", "height_source": "source_b" }, "geometry": { "type": "Polygon", "coordinates": [ [ [ 30.353686, 59.99492399999869 ], [ 30.352932, 59.995035999998677 ], [ 30.353002, 59.99515299999868 ], [ 30.353626, 59.995111999998656 ], [ 30.353601, 59.995071999998679 ], [ 30.353759, 59.995046999998671 ], [ 30.353686, 59.99492399999869 ] ] ] } },
{ "type": "Feature", "properties": { "height": 4.5, "match_type": "matched", "height_source": "source_b" }, "geometry": { "type": "Polygon", "coordinates": [ [ [ 30.352995, 59.99552799999865 ], [ 30.352808, 59.995561999998671 ], [ 30.352853, 59.995623999998671 ], [ 30.35304, 59.995589999998664 ], [ 30.352995, 59.99552799999865 ] ] ] } },
{ "type": "Feature", "properties": { "height": 4.5, "match_type": "matched", "height_source": "source_b" }, "geometry": { "type": "Polygon", "coordinates": [ [ [ 30.353196, 59.995510999998672 ], [ 30.353082, 59.995526999998667 ], [ 30.353115, 59.995582999998661 ], [ 30.353228, 59.995565999998675 ], [ 30.353196, 59.995510999998672 ] ] ] } },
{ "type": "Feature", "properties": { "height": 32.0, "match_type": "matched", "height_source": "source_b" }, "geometry": { "type": "Polygon", "coordinates": [ [ [ 30.355418525897466, 59.985355832863725 ], [ 30.35548643249756, 59.985174164985864 ], [ 30.353211758985339, 59.984960671403407 ], [ 30.353143842276648, 59.985142337174572 ], [ 30.355418525897466, 59.985355832863725 ] ] ] } },
{ "type": "Feature", "properties": { "height": 4.3, "match_type": "only_a", "height_source": "ml_predicted" }, "geometry": { "type": "Polygon", "coordinates": [ [ [ 30.35335, 59.99362 ], [ 30.35351, 59.99367 ], [ 30.35365, 59.99359 ], [ 30.35358, 59.99356 ], [ 30.35349, 59.99363 ], [ 30.35338, 59.99359 ], [ 30.35335, 59.99362 ] ] ] } },
{ "type": "Feature", "properties": { "height": 15.0, "match_type": "matched", "height_source": "source_b" }, "geometry": { "type": "Polygon", "coordinates": [ [ [ 30.351985, 59.988106999998685 ], [ 30.352122, 59.988230999998663 ], [ 30.352176, 59.988378999998652 ], [ 30.352269, 59.988372999998674 ], [ 30.352318, 59.988463999998665 ], [ 30.352483, 59.988432999998686 ], [ 30.352547, 59.988519999998651 ], [ 30.35267, 59.988493999998695 ], [ 30.352981, 59.988642999998653 ], [ 30.353251, 59.98849999999868 ], [ 30.353351, 59.988547999998673 ], [ 30.35583, 59.987228999998671 ], [ 30.355761, 59.987193999998688 ], [ 30.356573, 59.986759999998661 ], [ 30.355205, 59.98654499999865 ], [ 30.354188, 59.986438999998661 ], [ 30.352131, 59.987516999998654 ], [ 30.352521, 59.987867999998706 ], [ 30.351985, 59.988106999998685 ] ] ] } },
{ "type": "Feature", "properties": { "height": 4.5, "match_type": "matched", "height_source": "source_b" }, "geometry": { "type": "Polygon", "coordinates": [ [ [ 30.353588, 59.995587999998669 ], [ 30.353339, 59.995644999998667 ], [ 30.353463, 59.995778999998663 ], [ 30.353813, 59.995697999998669 ], [ 30.353761, 59.995641999998682 ], [ 30.353659, 59.995664999998652 ], [ 30.353588, 59.995587999998669 ] ] ] } },
{ "type": "Feature", "properties": { "height": 5.8, "match_type": "only_a", "height_source": "ml_predicted" }, "geometry": { "type": "Polygon", "coordinates": [ [ [ 30.35349, 59.98418 ], [ 30.35374, 59.98421 ], [ 30.35377, 59.98413 ], [ 30.35352, 59.9841 ], [ 30.35349, 59.98418 ] ] ] } },
{ "type": "Feature", "properties": { "height": 8.0, "match_type": "matched", "height_source": "source_b" }, "geometry": { "type": "Polygon", "coordinates": [ [ [ 30.352945, 59.990576999998687 ], [ 30.352925, 59.990680999998681 ], [ 30.353023, 59.990685999998675 ], [ 30.353011, 59.990744999998682 ], [ 30.353518, 59.990770999998695 ], [ 30.35355, 59.99060699999864 ], [ 30.352945, 59.990576999998687 ] ] ] } },
{ "type": "Feature", "properties": { "height": 5.0, "match_type": "matched", "height_source": "source_b" }, "geometry": { "type": "Polygon", "coordinates": [ [ [ 30.353130284076954, 59.984614710071007 ], [ 30.353081916255707, 59.984749695873987 ], [ 30.354340175912103, 59.984862886872762 ], [ 30.354531891273854, 59.984327768975675 ], [ 30.354142281974728, 59.984292721631874 ], [ 30.353998923178274, 59.984692852746186 ], [ 30.353130284076954, 59.984614710071007 ] ] ] } },
{ "type": "Feature", "properties": { "height": 4.0, "match_type": "matched", "height_source": "source_b" }, "geometry": { "type": "Polygon", "coordinates": [ [ [ 30.353670190581195, 59.984222932520119 ], [ 30.353378796039028, 59.984193682366623 ], [ 30.353210269319604, 59.984615207548572 ], [ 30.353501667328128, 59.984644458993252 ], [ 30.353670190581195, 59.984222932520119 ] ] ] } },
{ "type": "Feature", "properties": { "height": 4.5, "match_type": "matched", "height_source": "source_b" }, "geometry": { "type": "Polygon", "coordinates": [ [ [ 30.353493, 59.991055999998679 ], [ 30.353479, 59.991116999998674 ], [ 30.353627, 59.991125999998658 ], [ 30.353641, 59.991063999998666 ], [ 30.353493, 59.991055999998679 ] ] ] } },
{ "type": "Feature", "properties": { "height": 7.0, "match_type": "matched", "height_source": "source_b" }, "geometry": { "type": "Polygon", "coordinates": [ [ [ 30.353778000488532, 59.99002200023763 ], [ 30.353769000407485, 59.989904999988475 ], [ 30.353347000425284, 59.989914000140161 ], [ 30.353356999697237, 59.990030999812291 ], [ 30.353778000488532, 59.99002200023763 ] ] ] } },
{ "type": "Feature", "properties": { "height": 27.0, "match_type": "matched", "height_source": "source_b" }, "geometry": { "type": "Polygon", "coordinates": [ [ [ 30.353393, 59.99194999999866 ], [ 30.353242, 59.992065999998673 ], [ 30.35341, 59.992186999998673 ], [ 30.353464, 59.992159999998677 ], [ 30.353637, 59.992248999998658 ], [ 30.353917, 59.992113999998651 ], [ 30.353758, 59.992030999998676 ], [ 30.35365, 59.99208399999867 ], [ 30.353393, 59.99194999999866 ] ] ] } },
{ "type": "Feature", "properties": { "height": 15.0, "match_type": "matched", "height_source": "source_b" }, "geometry": { "type": "Polygon", "coordinates": [ [ [ 30.353242, 59.992065999998673 ], [ 30.353393, 59.99194999999866 ], [ 30.353507, 59.992008999998667 ], [ 30.353536, 59.991942999998656 ], [ 30.3533, 59.991912999998682 ], [ 30.353149, 59.992036999998689 ], [ 30.353242, 59.992065999998673 ] ] ] } },
{ "type": "Feature", "properties": { "height": 15.0, "match_type": "matched", "height_source": "source_b" }, "geometry": { "type": "Polygon", "coordinates": [ [ [ 30.353917, 59.992113999998651 ], [ 30.354069, 59.992039999998688 ], [ 30.35395, 59.991977999998682 ], [ 30.353737, 59.992019999998661 ], [ 30.353917, 59.992113999998651 ] ] ] } },
{ "type": "Feature", "properties": { "height": 6.6, "match_type": "matched", "height_source": "source_b" }, "geometry": { "type": "Polygon", "coordinates": [ [ [ 30.354128, 59.993629999998674 ], [ 30.354032, 59.993587999998674 ], [ 30.353961, 59.99362999999866 ], [ 30.354032, 59.99367099999867 ], [ 30.354128, 59.993629999998674 ] ] ] } },
{ "type": "Feature", "properties": { "height": 11.9, "match_type": "only_a", "height_source": "ml_predicted" }, "geometry": { "type": "Polygon", "coordinates": [ [ [ 30.35407, 59.98603 ], [ 30.35417, 59.98603 ], [ 30.35422, 59.98591 ], [ 30.35412, 59.98589 ], [ 30.35407, 59.98603 ] ] ] } },
{ "type": "Feature", "properties": { "height": 9.0, "match_type": "only_a", "height_source": "ml_predicted" }, "geometry": { "type": "Polygon", "coordinates": [ [ [ 30.35415, 59.99229 ], [ 30.35404, 59.99224 ], [ 30.354, 59.99227 ], [ 30.35411, 59.99232 ], [ 30.35415, 59.99229 ] ] ] } },
{ "type": "Feature", "properties": { "height": 8.4, "match_type": "only_a", "height_source": "ml_predicted" }, "geometry": { "type": "Polygon", "coordinates": [ [ [ 30.35421, 59.99138 ], [ 30.35426, 59.99133 ], [ 30.3542, 59.99131 ], [ 30.35414, 59.99137 ], [ 30.35421, 59.99138 ] ] ] } },
{ "type": "Feature", "properties": { "height": 4.0, "match_type": "matched", "height_source": "source_b" }, "geometry": { "type": "Polygon", "coordinates": [ [ [ 30.35423500082485, 59.990032999923784 ], [ 30.35462100010227, 59.990018999790969 ], [ 30.354743000288671, 59.990014999994614 ], [ 30.354733999337611, 59.989947999732195 ], [ 30.354224999258076, 59.989967000142862 ], [ 30.35423500082485, 59.990032999923784 ] ] ] } },
{ "type": "Feature", "properties": { "height": 4.5, "match_type": "matched", "height_source": "source_b" }, "geometry": { "type": "Polygon", "coordinates": [ [ [ 30.354062, 59.989091999998642 ], [ 30.354236, 59.989168999998654 ], [ 30.354386, 59.989082999998686 ], [ 30.354212, 59.989005999998675 ], [ 30.354062, 59.989091999998642 ] ] ] } },
{ "type": "Feature", "properties": { "height": 13.2, "match_type": "matched", "height_source": "source_b" }, "geometry": { "type": "Polygon", "coordinates": [ [ [ 30.354213, 59.991556999998657 ], [ 30.354473, 59.99165099999869 ], [ 30.354668, 59.991487999998668 ], [ 30.354435, 59.991402999998662 ], [ 30.354351, 59.991461999998656 ], [ 30.354431, 59.991490999998675 ], [ 30.354385, 59.991521999998675 ], [ 30.354305, 59.991492999998648 ], [ 30.354213, 59.991556999998657 ] ] ] } },
{ "type": "Feature", "properties": { "height": 15.0, "match_type": "matched", "height_source": "source_b" }, "geometry": { "type": "Polygon", "coordinates": [ [ [ 30.354305, 59.991492999998648 ], [ 30.354385, 59.991521999998675 ], [ 30.354431, 59.991490999998675 ], [ 30.354351, 59.991461999998656 ], [ 30.354305, 59.991492999998648 ] ] ] } },
{ "type": "Feature", "properties": { "height": 15.0, "match_type": "matched", "height_source": "source_b" }, "geometry": { "type": "Polygon", "coordinates": [ [ [ 30.354473, 59.99165099999869 ], [ 30.354553, 59.991679999998652 ], [ 30.354775, 59.991525999998665 ], [ 30.354668, 59.991487999998668 ], [ 30.354473, 59.99165099999869 ] ] ] } },
{ "type": "Feature", "properties": { "height": 4.5, "match_type": "matched", "height_source": "source_b" }, "geometry": { "type": "Polygon", "coordinates": [ [ [ 30.354349, 59.994701999998668 ], [ 30.354228, 59.994717999998663 ], [ 30.354249, 59.994754999998669 ], [ 30.354369, 59.994738999998646 ], [ 30.354349, 59.994701999998668 ] ] ] } },
{ "type": "Feature", "properties": { "height": 27.0, "match_type": "matched", "height_source": "source_b" }, "geometry": { "type": "Polygon", "coordinates": [ [ [ 30.354535, 59.995124999998659 ], [ 30.354331, 59.99515499999869 ], [ 30.354353, 59.995204999998684 ], [ 30.354315, 59.995210999998683 ], [ 30.354393, 59.995354999998668 ], [ 30.354435, 59.995347999998671 ], [ 30.354515, 59.995489999998661 ], [ 30.354478, 59.995496999998664 ], [ 30.354675, 59.995769999998679 ], [ 30.354635, 59.995776999998682 ], [ 30.354716, 59.995919999998669 ], [ 30.354762, 59.995913999998663 ], [ 30.354887, 59.996204999998682 ], [ 30.35494, 59.996249999998653 ], [ 30.355155, 59.996220999998691 ], [ 30.354535, 59.995124999998659 ] ] ] } },
{ "type": "Feature", "properties": { "height": 4.7, "match_type": "only_a", "height_source": "ml_predicted" }, "geometry": { "type": "Polygon", "coordinates": [ [ [ 30.35454, 59.99113 ], [ 30.35477, 59.99117 ], [ 30.35477, 59.99114 ], [ 30.35454, 59.99113 ] ] ] } },
{ "type": "Feature", "properties": { "height": 7.8, "match_type": "only_a", "height_source": "ml_predicted" }, "geometry": { "type": "Polygon", "coordinates": [ [ [ 30.35455, 59.98496 ], [ 30.35456, 59.98492 ], [ 30.35446, 59.98491 ], [ 30.35444, 59.98495 ], [ 30.35455, 59.98496 ] ] ] } },
{ "type": "Feature", "properties": { "height": 7.0, "match_type": "matched", "height_source": "source_b" }, "geometry": { "type": "Polygon", "coordinates": [ [ [ 30.35454900017292, 59.99404200010418 ], [ 30.354770000049381, 59.994039999608326 ], [ 30.354766000772671, 59.99394600012986 ], [ 30.354544999804475, 59.993947999690377 ], [ 30.35454900017292, 59.99404200010418 ] ] ] } },
{ "type": "Feature", "properties": { "height": 4.8, "match_type": "only_a", "height_source": "ml_predicted" }, "geometry": { "type": "Polygon", "coordinates": [ [ [ 30.35457, 59.99288 ], [ 30.35474, 59.99281 ], [ 30.35459, 59.99276 ], [ 30.35454, 59.9928 ], [ 30.35463, 59.99283 ], [ 30.35457, 59.99288 ] ] ] } },
{ "type": "Feature", "properties": { "height": 6.6, "match_type": "matched", "height_source": "source_b" }, "geometry": { "type": "Polygon", "coordinates": [ [ [ 30.353454, 59.993568999998679 ], [ 30.354589, 59.99277799999868 ], [ 30.353393, 59.992346999998652 ], [ 30.352258, 59.993137999998673 ], [ 30.353454, 59.993568999998679 ] ] ] } },
{ "type": "Feature", "properties": { "height": 4.5, "match_type": "matched", "height_source": "source_b" }, "geometry": { "type": "Polygon", "coordinates": [ [ [ 30.352258, 59.993137999998673 ], [ 30.353393, 59.992346999998652 ], [ 30.353214, 59.992282999998679 ], [ 30.352079, 59.993073999998678 ], [ 30.352258, 59.993137999998673 ] ] ] } },
{ "type": "Feature", "properties": { "height": 6.6, "match_type": "matched", "height_source": "source_b" }, "geometry": { "type": "Polygon", "coordinates": [ [ [ 30.354619, 59.992416999998674 ], [ 30.354841, 59.99249799999869 ], [ 30.355009, 59.992382999998668 ], [ 30.354787, 59.992301999998695 ], [ 30.354619, 59.992416999998674 ] ] ] } },
{ "type": "Feature", "properties": { "height": 4.5, "match_type": "matched", "height_source": "source_b" }, "geometry": { "type": "Polygon", "coordinates": [ [ [ 30.355029, 59.992579999998661 ], [ 30.355177, 59.992474999998677 ], [ 30.35502, 59.992419999998646 ], [ 30.354872, 59.992524999998658 ], [ 30.355029, 59.992579999998661 ] ] ] } },
{ "type": "Feature", "properties": { "height": 4.5, "match_type": "only_a", "height_source": "ml_predicted" }, "geometry": { "type": "Polygon", "coordinates": [ [ [ 30.35533, 59.99438 ], [ 30.35542, 59.99437 ], [ 30.35531, 59.99435 ], [ 30.35533, 59.99438 ] ] ] } },
{ "type": "Feature", "properties": { "height": 4.0, "match_type": "matched", "height_source": "source_b" }, "geometry": { "type": "Polygon", "coordinates": [ [ [ 30.354830999234746, 59.99003499961951 ], [ 30.35536099967516, 59.990015000001428 ], [ 30.355344999702972, 59.989914000424207 ], [ 30.354815000871945, 59.989933999989077 ], [ 30.354830999234746, 59.99003499961951 ] ] ] } },
{ "type": "Feature", "properties": { "height": 4.5, "match_type": "matched", "height_source": "source_b" }, "geometry": { "type": "Polygon", "coordinates": [ [ [ 30.355303, 59.991961999998672 ], [ 30.355237, 59.992004999998677 ], [ 30.355334, 59.992041999998669 ], [ 30.3554, 59.991998999998678 ], [ 30.355303, 59.991961999998672 ] ] ] } },
{ "type": "Feature", "properties": { "height": 15.7, "match_type": "only_a", "height_source": "ml_predicted" }, "geometry": { "type": "Polygon", "coordinates": [ [ [ 30.35539, 59.98502 ], [ 30.35495, 59.98498 ], [ 30.35464, 59.98501 ], [ 30.35462, 59.98507 ], [ 30.35534, 59.98514 ], [ 30.35539, 59.98502 ] ] ] } },
{ "type": "Feature", "properties": { "height": 5.3, "match_type": "only_a", "height_source": "ml_predicted" }, "geometry": { "type": "Polygon", "coordinates": [ [ [ 30.35539, 59.99362 ], [ 30.35523, 59.99355 ], [ 30.35517, 59.99359 ], [ 30.35533, 59.99365 ], [ 30.35539, 59.99362 ] ] ] } },
{ "type": "Feature", "properties": { "height": 4.5, "match_type": "matched", "height_source": "source_b" }, "geometry": { "type": "Polygon", "coordinates": [ [ [ 30.355432, 59.99176599999867 ], [ 30.355324, 59.991720999998684 ], [ 30.355117, 59.99181499999866 ], [ 30.355211, 59.991865999998687 ], [ 30.355432, 59.99176599999867 ] ] ] } },
{ "type": "Feature", "properties": { "height": 6.6, "match_type": "matched", "height_source": "source_b" }, "geometry": { "type": "Polygon", "coordinates": [ [ [ 30.355302, 59.992742999998654 ], [ 30.355816, 59.992931999998689 ], [ 30.355884, 59.99288599999867 ], [ 30.355369, 59.992696999998664 ], [ 30.355302, 59.992742999998654 ] ] ] } },
{ "type": "Feature", "properties": { "height": 4.6, "match_type": "only_a", "height_source": "ml_predicted" }, "geometry": { "type": "Polygon", "coordinates": [ [ [ 30.35561, 59.99263 ], [ 30.35559, 59.99265 ], [ 30.35569, 59.99266 ], [ 30.35561, 59.99263 ] ] ] } },
{ "type": "Feature", "properties": { "height": 12.0, "match_type": "matched", "height_source": "source_b" }, "geometry": { "type": "Polygon", "coordinates": [ [ [ 30.355194, 59.99152099999867 ], [ 30.355623, 59.991750999998679 ], [ 30.355991, 59.99157999999867 ], [ 30.355642, 59.991391999998683 ], [ 30.355555, 59.991431999998674 ], [ 30.355475, 59.991389999998688 ], [ 30.355194, 59.99152099999867 ] ] ] } },
{ "type": "Feature", "properties": { "height": 9.4, "match_type": "only_a", "height_source": "ml_predicted" }, "geometry": { "type": "Polygon", "coordinates": [ [ [ 30.35554, 59.98879 ], [ 30.35581, 59.98892 ], [ 30.35596, 59.98886 ], [ 30.35586, 59.98879 ], [ 30.35592, 59.98877 ], [ 30.3558, 59.98869 ], [ 30.35554, 59.98879 ] ] ] } },
{ "type": "Feature", "properties": { "height": 9.9, "match_type": "matched", "height_source": "source_b" }, "geometry": { "type": "Polygon", "coordinates": [ [ [ 30.35626, 59.98934799999865 ], [ 30.355758, 59.989369999998672 ], [ 30.355566, 59.989356999998634 ], [ 30.355593, 59.989502999998678 ], [ 30.356281, 59.989472999998654 ], [ 30.35626, 59.98934799999865 ] ] ] } },
{ "type": "Feature", "properties": { "height": 5.9, "match_type": "only_a", "height_source": "ml_predicted" }, "geometry": { "type": "Polygon", "coordinates": [ [ [ 30.3558, 59.98869 ], [ 30.35592, 59.98877 ], [ 30.35614, 59.98868 ], [ 30.35603, 59.98861 ], [ 30.3558, 59.98869 ] ] ] } },
{ "type": "Feature", "properties": { "height": 10.9, "match_type": "only_a", "height_source": "ml_predicted" }, "geometry": { "type": "Polygon", "coordinates": [ [ [ 30.35592, 59.98474 ], [ 30.35603, 59.98457 ], [ 30.35596, 59.98456 ], [ 30.35609, 59.98434 ], [ 30.35507, 59.98418 ], [ 30.3549, 59.98444 ], [ 30.35495, 59.98447 ], [ 30.35473, 59.98483 ], [ 30.35494, 59.98487 ], [ 30.3551, 59.98461 ], [ 30.35592, 59.98474 ] ] ] } },
{ "type": "Feature", "properties": { "height": 4.5, "match_type": "matched", "height_source": "source_b" }, "geometry": { "type": "Polygon", "coordinates": [ [ [ 30.356069, 59.991402999998677 ], [ 30.355912, 59.991399999998684 ], [ 30.355907, 59.99147199999868 ], [ 30.356063, 59.99147499999868 ], [ 30.356069, 59.991402999998677 ] ] ] } },
{ "type": "Feature", "properties": { "height": 4.5, "match_type": "matched", "height_source": "source_b" }, "geometry": { "type": "Polygon", "coordinates": [ [ [ 30.356024, 59.994107999998668 ], [ 30.355896, 59.99412299999868 ], [ 30.35592, 59.994176999998665 ], [ 30.356048, 59.994162999998686 ], [ 30.356024, 59.994107999998668 ] ] ] } },
{ "type": "Feature", "properties": { "height": 6.9, "match_type": "only_a", "height_source": "ml_predicted" }, "geometry": { "type": "Polygon", "coordinates": [ [ [ 30.35599, 59.99216 ], [ 30.35593, 59.99214 ], [ 30.35579, 59.99222 ], [ 30.35586, 59.99225 ], [ 30.35599, 59.99216 ] ] ] } },
{ "type": "Feature", "properties": { "height": 12.0, "match_type": "matched", "height_source": "source_b" }, "geometry": { "type": "Polygon", "coordinates": [ [ [ 30.355633000386792, 59.989826000248776 ], [ 30.355767000320547, 59.989811999924434 ], [ 30.356339000293538, 59.989785000231109 ], [ 30.356247000073441, 59.989642999738606 ], [ 30.35566399986919, 59.989676999980006 ], [ 30.35568100025165, 59.989751999926675 ], [ 30.355616999664448, 59.989756000189125 ], [ 30.355633000386792, 59.989826000248776 ] ] ] } },
{ "type": "Feature", "properties": { "height": 4.5, "match_type": "only_b", "height_source": "source_b" }, "geometry": { "type": "Polygon", "coordinates": [ [ [ 30.346766, 59.993908999998659 ], [ 30.346558, 59.993925999998666 ], [ 30.346576, 59.993980999998676 ], [ 30.346782, 59.99396399999867 ], [ 30.346766, 59.993908999998659 ] ] ] } },
{ "type": "Feature", "properties": { "height": 6.0, "match_type": "only_b", "height_source": "source_b" }, "geometry": { "type": "Polygon", "coordinates": [ [ [ 30.347154046987868, 59.98840782625804 ], [ 30.346511546584978, 59.988366570781807 ], [ 30.346481495397981, 59.988484048969937 ], [ 30.347123996243436, 59.98852530457085 ], [ 30.347154046987868, 59.98840782625804 ] ] ] } },
{ "type": "Feature", "properties": { "height": 37.0, "match_type": "only_b", "height_source": "source_b" }, "geometry": { "type": "Polygon", "coordinates": [ [ [ 30.347596911647884, 59.984289652214031 ], [ 30.347599680684031, 59.984154836870815 ], [ 30.347186427536389, 59.984152704559655 ], [ 30.347183655029639, 59.98428751984698 ], [ 30.347596911647884, 59.984289652214031 ] ] ] } },
{ "type": "Feature", "properties": { "height": 4.5, "match_type": "only_b", "height_source": "source_b" }, "geometry": { "type": "Polygon", "coordinates": [ [ [ 30.349467, 59.99129699999866 ], [ 30.349089, 59.991432999998679 ], [ 30.349184, 59.991499999998673 ], [ 30.349563, 59.991363999998661 ], [ 30.349467, 59.99129699999866 ] ] ] } },
{ "type": "Feature", "properties": { "height": 4.5, "match_type": "only_b", "height_source": "source_b" }, "geometry": { "type": "Polygon", "coordinates": [ [ [ 30.352635, 59.98877699999867 ], [ 30.352572, 59.98881199999866 ], [ 30.352715, 59.988874999998679 ], [ 30.352778, 59.988839999998653 ], [ 30.352635, 59.98877699999867 ] ] ] } },
{ "type": "Feature", "properties": { "height": 4.5, "match_type": "only_b", "height_source": "source_b" }, "geometry": { "type": "Polygon", "coordinates": [ [ [ 30.352711, 59.988711999998685 ], [ 30.352654, 59.98873599999866 ], [ 30.35279, 59.988818999998657 ], [ 30.352848, 59.988794999998667 ], [ 30.352711, 59.988711999998685 ] ] ] } },
{ "type": "Feature", "properties": { "height": 5.0, "match_type": "only_b", "height_source": "source_b" }, "geometry": { "type": "Polygon", "coordinates": [ [ [ 30.35409397277283, 59.989982866124457 ], [ 30.353995111088413, 59.989982866846248 ], [ 30.353995110987697, 59.990039037006376 ], [ 30.354093972768091, 59.990039037182669 ], [ 30.35409397277283, 59.989982866124457 ] ] ] } },
{ "type": "Feature", "properties": { "height": 4.5, "match_type": "only_b", "height_source": "source_b" }, "geometry": { "type": "Polygon", "coordinates": [ [ [ 30.354491, 59.992164999998671 ], [ 30.354423, 59.992206999998658 ], [ 30.354588, 59.992272999998654 ], [ 30.354654, 59.992230999998668 ], [ 30.354491, 59.992164999998671 ] ] ] } },
{ "type": "Feature", "properties": { "height": 6.0, "match_type": "matched", "height_source": "source_b" }, "geometry": { "type": "Polygon", "coordinates": [ [ [ 30.354580999183622, 59.994042000006154 ], [ 30.354587000124425, 59.994138999862159 ], [ 30.354419999202563, 59.994140999863397 ], [ 30.354425000669664, 59.994225000430241 ], [ 30.354978999270756, 59.994216000114001 ], [ 30.354972999175693, 59.994132000237599 ], [ 30.354743000794052, 59.994136000267233 ], [ 30.354737000237705, 59.994040000357565 ], [ 30.354580999183622, 59.994042000006154 ] ] ] } },
{ "type": "Feature", "properties": { "height": 4.5, "match_type": "only_b", "height_source": "source_b" }, "geometry": { "type": "Polygon", "coordinates": [ [ [ 30.355804, 59.984108999998661 ], [ 30.355764, 59.984188999998651 ], [ 30.355866, 59.98420199999866 ], [ 30.355906, 59.984121999998649 ], [ 30.355804, 59.984108999998661 ] ] ] } }
]
}
